#cP2013  1  3  0  0  0.00000000      96 ORBIT IGb08 HLM  IGS
## 1721 345600.00000000   900.00000000 56295 0.0000000000000
+   32   G01G02G03G04G05G06G07G08G09G10G11G12G13G14G15G16G17
+        G18G19G20G21G22G23G24G25G26G27G28G29G30G31G32  0  0
+          0  0  0  0  0  0  0  0  0  0  0  0  0  0  0  0  0
+          0  0  0  0  0  0  0  0  0  0  0  0  0  0  0  0  0
+          0  0  0  0  0  0  0  0  0  0  0  0  0  0  0  0  0
++         2  2  2  2  2  2  2  2  2  2  2  2  2  2  3  2  2
++         2  2  2  2  2  2  2  2  2  0  2  2  2  2  2  0  0
++         0  0  0  0  0  0  0  0  0  0  0  0  0  0  0  0  0
++         0  0  0  0  0  0  0  0  0  0  0  0  0  0  0  0  0
++         0  0  0  0  0  0  0  0  0  0  0  0  0  0  0  0  0
%c G  cc GPS ccc cccc cccc cccc cccc ccccc ccccc ccccc ccccc
%c cc cc ccc ccc cccc cccc cccc cccc ccccc ccccc ccccc ccccc
%f  1.2500000  1.025000000  0.00000000000  0.000000000000000
%f  0.0000000  0.000000000  0.00000000000  0.000000000000000
%i    0    0    0    0      0      0      0      0         0
%i    0    0    0    0      0      0      0      0         0
/* FINAL ORBIT COMBINATION FROM WEIGHTED AVERAGE OF:        
/* cod emr esa gfz grg jpl mit ngs sio                      
/* REFERENCED TO IGS TIME (IGST) AND TO WEIGHTED MEAN POLE: 
/* PCV:IGS08_1722 OL/AL:FES2004  NONE     Y  ORB:CMB CLK:CMB
*  2013  1  3  1 30  0.00000000
PG01 -22242.376306 -13228.116088   6107.871653    291.082856  8  5  7 127       
PG02  10626.452018  20966.714265  13012.230900    413.511043  6  6  5 119       
PG03  -6311.325571 -14781.510557 -21639.987684    150.056369  9  8  6 148       
PG04  -4136.278513  16092.441545  20386.674061     93.673291  6  3  5 130       
PG05   4621.346681  23143.873276 -12073.077815   -376.442972  7  5  5 127       
PG06    925.162935 -16670.630712 -20491.986942    402.233890  8  8  4 133       
PG07 -19576.232689   -979.523308 -18014.591857    164.438736 10  6  7 143       
PG08 -11687.656577   8489.808591 -22209.557222      3.780554  5  4  5 129       
PG09  17296.382979  19431.873613  -5702.899206    210.993341  7  6  5 125       
PG10  -8487.953911  24398.331145   4853.978371    -64.688852  5  6  7 121       
PG11 -22949.419845 -13307.841909  -3559.127099   -339.642752  8  6  7 138       
PG12  12563.741968   9537.444414  21384.015869    110.272688  8  8  5 111       
PG13 -26040.705883   4139.067610   3522.241817    155.429370  6  6  4 137       
PG14  18320.905250 -14268.296029  12957.424202    219.102428  3  6  4 117       
PG15  17268.708835   7860.433751 -18699.896274   -104.010434  7  8  7 145       
PG16  -2444.485668 -23617.172788 -11561.249771   -251.451445  6  6  6 125       
PG17 -16710.840728  15321.161600  13832.643663     63.414977  7  6  9 119       
PG18  15367.731184 -12549.950590 -17109.965253    232.487620  8  6  5 120       
PG19 -14369.375420 -10591.077679 -19870.143789   -336.485622  8  7  8 146       
PG20 -14501.109260  -7989.979583  20605.681042     78.633821  4  6  6 117       
PG21  18101.050297  -3011.194525 -18855.850631   -272.218877  7  6  3 107       
PG22  10376.166945 -23007.274648  -7875.456127    154.832943  8  4  5  93       
PG23 -22868.475607  -2325.773463  13692.395946    127.750876  7  6  5 125       
PG24  21437.378528  15478.550344   2638.924351      1.301035  6  7  4 155       
PG25  15418.433385  -4304.815526  21143.691010     60.340452  6  7  6 117       
PG26   4642.589300  14350.273231 -22499.744015   -152.386061  6  4  5 131       
PG27   7357.135393 -25122.171483   3734.879716 999999.999999
PG28 -12264.105859  20540.905053 -10733.967945    219.873254  8  6  7 124       
PG29  25734.193856  -4332.228194   4885.944249    393.963113 10  7  8 143       
PG30   1698.461191 -26515.772566   -586.754513   -264.111116  4  5  7 118       
PG31   -313.392953 -17914.656398  19706.229766    295.625102  5  6  6 108       
PG32  -9076.965352 -17107.240201  18550.033067   -522.657055  6  2  3 111       
*  2013  1  3  1 45  0.00000000
PG01 -22513.373189 -13758.183811   3325.655807    291.084857  8  4  6 132       
PG02   9252.262985  20177.483274  15117.136980    413.512468  5  6  5 110       
PG03  -4232.442927 -15909.702076 -21315.863219    150.061521  9  8  5 153       
PG04  -6101.884478  14648.183255  20991.656287     93.682988  6  4  5 138       
PG05   4185.848077  24336.784069  -9618.762125   -376.444896  6  5  5 129       
PG06   3081.942906 -17541.308732 -19505.765876    402.221500  7  8  4 120       
PG07 -21008.129485  -2312.671469 -16218.280526    164.442777 10  7  7 148       
PG08 -13492.668585   6719.055820 -21842.119321      3.780744  5  4  5 135       
PG09  16602.476740  19109.763817  -8456.993398    210.996504  7  6  5 124       
PG10  -8684.674429  23600.774468   7576.950368    -64.691163  5  6  7 119       
PG11 -22316.980506 -13502.230411  -6172.518346   -339.646130  8  6  7 141       
PG12  12093.211291  11880.610948  20480.400501    110.274631  7  8  5 111       
PG13 -25535.300099   3808.062106   6342.923865    155.426919  5  5  5 130       
PG14  19632.242292 -14492.913739  10508.510835    219.103026  4  6  4 115       
PG15  15287.618811   8837.038327 -19926.255095   -104.011289  7  8  7 146       
PG16  -2028.441809 -24739.648639  -8979.677469   -251.451915  6  6  6 132       
PG17 -18127.611147  15597.163843  11488.478906     63.411882  7  7  9 128       
PG18  15253.988130 -10409.084750 -18585.263857    232.489177  7  5  5 115       
PG19 -12176.969100 -11309.647655 -20880.111027   -336.488751  8  6  8 148       
PG20 -14172.134069 -10325.604587  19794.073492     78.635167  4  6  6 106       
PG21  19700.217633  -1538.432656 -17466.678363   -272.221231  7  7  3 140       
PG22  10540.098447 -21891.450533 -10391.760235    154.833681  7  4  5 108       
PG23 -21374.112192  -3076.324034  15773.096171    127.747611  7  6  5 127       
PG24  21388.266048  15767.192245   -208.218685      1.299700  6  7  4 156       
PG25  15124.088513  -1864.296431  21710.654180     60.342575  6  7  6 119       
PG26   2308.626018  15017.378380 -22391.391424   -152.373753  6  4  7 131       
PG27   7481.717808 -24488.963898   6550.637211 999999.999999
PG28 -12162.061067  19077.633268 -13165.758185    219.876241  7  7  7 125       
PG29  25137.801866  -3880.383181   7632.299915    393.966705 10  7  8 141       
PG30   1942.601728 -26370.166939   2268.802497   -264.099830  4  5  7 122       
PG31   1500.876622 -16522.414868  20868.743893    295.626603  5  6  6 113       
PG32  -8484.979854 -19010.148671  16937.598025   -522.660060  6  3  3 110       
*  2013  1  3  2  0  0.00000000
PG01 -22551.406701 -14090.921767    486.408565    291.086844  8  4  6 139       
PG02   7656.367198  19333.949034  16970.368158    413.513751  5  7  5 113       
PG03  -2254.899828 -17110.046226 -20639.951453    150.066012  8  8  5 148       
PG04  -8170.997285  13272.632462  21225.258881     93.693346  6  4  5 136       
PG05   3835.090140  25263.904233  -6997.803804   -376.447026  6  5  4 130       
PG06   5080.812266 -18453.305633 -18178.296944    402.208636  7  8  5 135       
PG07 -22333.096401  -3435.106123 -14145.371884    164.446599  9  7  7 146       
PG08 -15345.428280   5101.532295 -21097.913556      3.780632  5  4  5 133       
PG09  15646.862468  18653.752479 -11067.684858    210.997956  7  5  5 128       
PG10  -8888.065474  22510.505829  10165.057764    -64.692067  5  7  7 119       
PG11 -21427.404794 -13628.361185  -8682.566591   -339.649463  8  7  7 140       
PG12  11768.361858  14123.102414  19225.412641    110.276763  7  8  6 105       
PG13 -24753.260595   3343.397570   9054.728987    155.424220  5  5  5 119       
PG14  20662.711589 -14684.303076   7878.933021    219.103417  4  6  5 112       
PG15  13249.126250   9964.680458 -20812.196535   -104.011971  7  8  7 141       
PG16  -1714.680146 -25582.264241  -6240.688499   -251.452587  5  5  6 125       
PG17 -19274.893093  15839.128097   8945.950937     63.408377  8  7  9 129       
PG18  15223.469665  -8116.697155 -19727.421815    232.490989  7  6  5 120       
PG19  -9934.330508 -12176.249987 -21535.848186   -336.491461  8  6  7 144       
PG20 -13957.165482 -12561.165582  18637.351600     78.636005  5  5  5 113       
PG21  21218.967580   -250.078215 -15770.479454   -272.222881  7  7  3 135       
PG22  10729.091524 -20510.005159 -12726.468291    154.834364  7  4  5 115       
PG23 -19720.568187  -3995.053887  17587.813206    127.743979  6  6  4 120       
PG24  21089.176586  15875.218659  -3051.782103      1.298578  6  7  3 158       
PG25  14957.600294    630.742045  21902.560492     60.344729  5  8  7 114       
PG26     42.735406  15806.722249 -21918.651215   -152.361496  6  4  7 127       
PG27   7611.012834 -23549.588831   9251.982999 999999.999999
PG28 -12103.635975  17342.561100 -15360.853092    219.879309  7  7  7 124       
PG29  24285.121696  -3283.087705  10247.237837    393.970128 10  7  8 139       
PG30   2200.968577 -25915.506923   5085.180196   -264.088562  4  4  7 122       
PG31   3476.522037 -15168.853146  21676.177478    295.628296  5  6  7 113       
PG32  -8026.950150 -20746.361041  15042.603647   -522.662889  6  3  3 119       
EOF
